IRIDIUM 150             
1 43257U 18030J   25059.62918518  .00000567  00000+0  19501-3 0  9990
2 43257  86.4060 128.4602 0002726 229.8352 130.2606 14.34336465362309
IRIDIUM 143             
1 43258U 18030K   25059.47063651  .00000580  00000+0  20013-3 0  9998
2 43258  86.3983 128.6069 0002279  83.9987 276.1469 14.34222470362192
IRIDIUM 161             
1 43478U 18047C   25059.50070296  .00000273  00000+0  75220-4 0  9997
2 43478  86.4453 286.4074 0002093  86.9235 273.2205 14.43275639356814
IRIDIUM 152             
1 43479U 18047D   25059.51312747  .00000126  00000+0  37940-4 0  9993
2 43479  86.3930 286.2617 0002041  88.2314 271.9115 14.34217452354598
IRIDIUM 147             
1 43480U 18047E   25059.37993228  .00000557  00000+0  19173-3 0  9993
2 43480  86.3929 286.3145 0001936  92.5807 267.5610 14.34218085354574
IRIDIUM 110             
1 43481U 18047F   25059.59557980  .00000128  00000+0  38497-4 0  9994
2 43481  86.3931 286.3039 0002260  98.1924 261.9529 14.34218848354599
IRIDIUM 162             
1 43482U 18047G   25059.49440246  .00000704  00000+0  20326-3 0  9991
2 43482  86.4451 286.3066 0002417  89.8019 270.3458 14.43278044356809
IRIDIUM 160             
1 43569U 18061A   25059.54141609 -.00000005  00000+0 -89020-5 0  9994
2 43569  86.3919 254.6730 0001941  96.5927 263.5490 14.34217546345485
